#aV2021  3 22  0  0  0.00000000     288 DD+AD WGS84 FIT  NGA
## 2150  86400.00000000   300.00000000 59295 0.0000000000000
+   32     1  2  3  4  5  6  7  8  9 10 11 12 13 14 15 16 17
+         18 19 20 21 22 23 24 25 26 27 28 29 30 31 32  0  0
+          0  0  0  0  0  0  0  0  0  0  0  0  0  0  0  0  0
+          0  0  0  0  0  0  0  0  0  0  0  0  0  0  0  0  0
+          0  0  0  0  0  0  0  0  0  0  0  0  0  0  0  0  0
++         2  2  2  2  2  2  2  2  2  2  2  2  2  2  2  2  2
++         2  2  2  2  2  2  2  2  2  2  2  2  2  2  2  0  0
++         0  0  0  0  0  0  0  0  0  0  0  0  0  0  0  0  0
++         0  0  0  0  0  0  0  0  0  0  0  0  0  0  0  0  0
++         0  0  0  0  0  0  0  0  0  0  0  0  0  0  0  0  0
%c cc cc ccc ccc cccc cccc cccc cccc ccccc ccccc ccccc ccccc
%c cc cc ccc ccc cccc cccc cccc cccc ccccc ccccc ccccc ccccc
%f  0.0000000  0.000000000  0.00000000000  0.000000000000000
%f  0.0000000  0.000000000  0.00000000000  0.000000000000000
%i    0    0    0    0      0      0      0      0         0
%i    0    0    0    0      0      0      0      0         0
/*      NGA, ST. LOUIS,MO.                                  
/*   EPHEMERIS COMPUTED FROM 2 DAYS OF DATA                 
/*   EPOCHA v5 SMOOTHER                                     
/*   G2139 IERS2010 SATAF SATAPC                            
*  2021  3 22 13 30  0.00000000
P  1 -21352.992271 -14541.894643  -7155.206071    735.275172                    
V  1   8589.325872   1947.644405 -30318.586912     -0.090444                    
P  2    303.243955  16124.231018  21757.913053   -588.553897                    
V  2 -24852.101107  -7979.912180   6496.948299     -0.036375                    
P  3 -12714.768615 -17593.408109  15299.369966   -115.184843                    
V  3   -547.181553 -19584.458355 -22750.203402     -0.107157                    
P  4 -13573.888691  -8569.095187  21175.926878   -187.659140                    
V  4  21651.623178 -15915.068237   7387.297748     -0.021854                    
P  5   4117.161964  26137.807253    -16.790043    -36.921170                    
V  5  -3141.421164    333.346192  31753.333770     -0.010527                    
P  6 -13250.480593   9561.192810  21016.494370      2.240874                    
V  6 -24081.636367 -10984.030944 -10159.547160      0.021617                    
P  7 -25256.942383  -6240.612044  -6166.936807     98.134928                    
V  7  -6438.540743  -5677.638113  29945.800365      0.122430                    
P  8  -6351.315636 -13944.900311 -21665.379298    -14.688886                    
V  8  22026.329967 -16506.667044   4463.834942     -0.014139                    
P  9 -21037.009441   1917.825581  16053.615546   -333.125841                    
V  9  14934.058789 -14199.940716  21166.140160     -0.030702                    
P 10  12301.142846 -12224.193313 -19925.151727    -86.272477                    
V 10   4328.816305  25269.859608 -13015.943119     -0.078773                    
P 11 -18105.118834 -11052.917568 -16216.435671      8.229308                    
V 11  19777.303840  -4477.348696 -19941.931736      0.106418                    
P 12   9643.330133  21196.025569  12663.878867    -17.478731                    
V 12  -1118.899391  16480.849459 -26062.141384     -0.053306                    
P 13  -4432.641179  17756.461404 -19335.849416    110.817613                    
V 13 -21777.362236  10829.506359  15164.787574      0.044804                    
P 14 -13445.330631  10807.837664 -20203.850017     99.591486                    
V 14  -2992.826439 -25489.409136 -11666.130418     -0.007525                    
P 15   8724.113509  13697.577487 -21343.722854   -161.402313                    
V 15 -19607.723619  17748.004905   3791.933350      0.025985                    
P 16    748.525251 -26176.580627   2253.125957   -297.900392                    
V 16   2885.871325   3107.505189  32189.620215     -0.058202                    
P 17 -22424.422748  14175.787488   -800.416706    413.882843                    
V 17    104.560779  -2625.920788 -32218.442780      0.062507                    
P 18  24377.198835   3432.131365 -10053.137231    351.004093                    
V 18  10655.849616   7326.143555  28296.648153      0.006646                    
P 19 -19388.419476  16719.540710   6588.652214    -23.005704                    
V 19  -8636.625115   2599.534114 -30788.285081      0.050167                    
P 20  16649.515098   4631.712532 -20236.139512    523.952067                    
V 20   5693.813859  25079.294086  10151.089232     -0.003834                    
P 21 -16889.630160 -15522.539818 -13044.128746    105.135098                    
V 21  17373.585228   3584.260001 -24915.692053      0.029851                    
P 22 -10645.200075 -23397.223388   7243.027802   -654.993360                    
V 22   1271.451187  -9425.969861 -29203.306218      0.082486                    
P 23  15272.113520    -95.484349 -21752.397552    116.800259                    
V 23   3808.891191  27297.849929   2515.500945     -0.012003                    
P 24  18134.631431  15713.268018 -12048.134783      0.742274                    
V 24 -14880.939829  -2373.619777 -25630.739800     -0.004264                    
P 25  15113.310997   8107.088211  20090.707289    103.804569                    
V 25   2196.821236  25945.455505 -11696.918318      0.074269                    
P 26   5380.853740 -22718.265345  12357.578156     61.623075                    
V 26   5519.344377  15228.744506  25742.471330      0.053142                    
P 27   6193.459900 -19209.068114 -17232.429674    -98.733211                    
V 27  18297.470139 -11720.001393  20190.496017     -0.070712                    
P 28 -12375.851753  13561.933392 -18707.698349    598.364791                    
V 28  -1918.775570 -24794.128239 -16044.512778     -0.056714                    
P 29  21217.798675  -1076.151301  15922.204411   -316.428623                    
V 29 -16251.348012  12135.094586  22373.495071     -0.068959                    
P 30 -20329.203052   4142.184344 -16659.910543   -402.080621                    
V 30 -18417.909866 -10773.749088  19506.805042     -0.054540                    
P 31  11227.210710 -11332.468607  21218.593099   -107.091033                    
V 31  24460.322772  11619.694194  -6254.618112     -0.022454                    
P 32  21026.107368 -16074.504571     70.289254     21.568668                    
V 32   1834.891385   2464.874242 -31794.744926      0.005188                    
EOF
